     3.02           N: GNSS NAV DATA    E: GALILEO          RINEX VERSION / TYPE
Spider v7.4.1.8151  SMO                 20200729 000830 UTC PGM / RUN BY / DATE
GAL    4.0500D+01  1.1719D-02  6.5002D-03  0.0000D+00       IONOSPHERIC CORR
GAUT  9.3132257462D-10-8.881784197D-16 172800 2116          TIME SYSTEM CORR
GPGA  2.5320332497D-09 1.199040867D-14 259200 2116          TIME SYSTEM CORR
    18    18  1929     7                                    LEAP SECONDS
                                                            END OF HEADER
E15 2020 07 28 18 30 00 8.583369199187D-04-1.364242052659D-12 0.000000000000D+00
     1.500000000000D+01-9.734375000000D+01 2.609037208501D-09 1.939557514653D+00
    -4.438683390617D-06 1.007237005979D-05 8.014962077141D-06 5.440612031937D+03
     2.394000000000D+05 1.862645149231D-09 1.672798477125D+00-3.725290298462D-09
     9.916708355736D-01 1.875312500000D+02-2.453544522995D+00-5.402010729716D-09
     8.178912408452D-11 5.170000000000D+02 2.116000000000D+03 0.000000000000D+00
     3.120000000000D+00 0.000000000000D+00 4.190951585770D-09 4.423782229424D-09
     2.400550000000D+05
E08 2020 07 28 18 30 00 6.143107486423D-03-5.385913937062D-12 0.000000000000D+00
     1.500000000000D+01-3.412500000000D+01 3.589078145794D-09-2.185714860574D+00
    -1.527369022369D-06 3.474216209725D-04 6.372109055519D-06 5.440621427536D+03
     2.394000000000D+05 3.539025783539D-08-2.508741700716D+00-9.872019290924D-08
     9.599544570877D-01 2.005000000000D+02-4.458309584889D-01-5.827742748878D-09
    -2.146517963375D-10 5.170000000000D+02 2.116000000000D+03 0.000000000000D+00
     3.120000000000D+00 0.000000000000D+00-5.820766091347D-09-6.752088665962D-09
     2.400640000000D+05
E30 2020 07 28 18 30 00 3.710770688485D-03-3.045386165468D-11 0.000000000000D+00
     1.500000000000D+01 1.267812500000D+02 2.725470737985D-09 7.862279554016D-01
     5.885958671570D-06 1.235606614500D-04 6.549060344696D-06 5.440611547470D+03
     2.394000000000D+05-9.313225746155D-09-4.032363533498D-01-1.676380634308D-08
     9.796541982553D-01 2.084062500000D+02 7.852140975818D-01-5.565588971978D-09
     8.143196533750D-11 5.170000000000D+02 2.116000000000D+03 0.000000000000D+00
     3.120000000000D+00 0.000000000000D+00-2.328306436539D-10-4.656612873077D-10
     2.400640000000D+05
E07 2020 07 28 18 30 00-4.151032189839D-04-5.030642569182D-12 0.000000000000D+00
     1.500000000000D+01-3.553125000000D+01 3.608364496088D-09-2.636348570340D+00
    -1.860782504082D-06 3.747055307031D-04 6.416812539101D-06 5.440620185852D+03
     2.394000000000D+05-7.636845111847D-08-2.502585924303D+00-1.862645149231D-09
     9.540150140747D-01 1.965000000000D+02-7.788019594048D-01-5.777383508356D-09
    -2.746542993037D-10 5.170000000000D+02 2.116000000000D+03 0.000000000000D+00
     3.120000000000D+00 0.000000000000D+00 2.793967723846D-09 3.026798367500D-09
     2.400640000000D+05
E30 2020 07 28 18 30 00 3.710771852639D-03-3.042543994525D-11 0.000000000000D+00
     1.500000000000D+01 1.267812500000D+02 2.725470737985D-09 7.862279554016D-01
     5.885958671570D-06 1.235606614500D-04 6.549060344696D-06 5.440611547470D+03
     2.394000000000D+05-9.313225746155D-09-4.032363533498D-01-1.676380634308D-08
     9.796541982553D-01 2.084062500000D+02 7.852140975818D-01-5.565588971978D-09
     8.143196533750D-11 2.580000000000D+02 2.116000000000D+03 0.000000000000D+00
     3.120000000000D+00 0.000000000000D+00-2.328306436539D-10 0.000000000000D+00
     2.401000000000D+05
E07 2020 07 28 18 30 00-4.151030443609D-04-5.030642569182D-12 0.000000000000D+00
     1.500000000000D+01-3.553125000000D+01 3.608364496088D-09-2.636348570340D+00
    -1.860782504082D-06 3.747055307031D-04 6.416812539101D-06 5.440620185852D+03
     2.394000000000D+05-7.636845111847D-08-2.502585924303D+00-1.862645149231D-09
     9.540150140747D-01 1.965000000000D+02-7.788019594048D-01-5.777383508356D-09
    -2.746542993037D-10 2.580000000000D+02 2.116000000000D+03 0.000000000000D+00
     3.120000000000D+00 0.000000000000D+00 2.793967723846D-09 0.000000000000D+00
     2.401000000000D+05
E08 2020 07 28 18 30 00 6.143108941615D-03-5.371703082346D-12 0.000000000000D+00
     1.500000000000D+01-3.412500000000D+01 3.589078145794D-09-2.185714860574D+00
    -1.527369022369D-06 3.474216209725D-04 6.372109055519D-06 5.440621427536D+03
     2.394000000000D+05 3.539025783539D-08-2.508741700716D+00-9.872019290924D-08
     9.599544570877D-01 2.005000000000D+02-4.458309584889D-01-5.827742748878D-09
    -2.146517963375D-10 2.580000000000D+02 2.116000000000D+03 0.000000000000D+00
     3.120000000000D+00 0.000000000000D+00-5.820766091347D-09 0.000000000000D+00
     2.401000000000D+05
E15 2020 07 28 18 30 00 8.583372691646D-04-1.364242052659D-12 0.000000000000D+00
     1.500000000000D+01-9.734375000000D+01 2.609037208501D-09 1.939557514653D+00
    -4.438683390617D-06 1.007237005979D-05 8.014962077141D-06 5.440612031937D+03
     2.394000000000D+05 1.862645149231D-09 1.672798477125D+00-3.725290298462D-09
     9.916708355736D-01 1.875312500000D+02-2.453544522995D+00-5.402010729716D-09
     8.178912408452D-11 2.580000000000D+02 2.116000000000D+03 0.000000000000D+00
     3.120000000000D+00 0.000000000000D+00 4.190951585770D-09 0.000000000000D+00
     2.401000000000D+05
E15 2020 07 28 18 40 00 8.583359303884D-04-1.378452907375D-12 0.000000000000D+00
     1.600000000000D+01-9.690625000000D+01 2.599036763584D-09 2.003268607881D+00
    -4.423782229424D-06 9.901705197990D-06 7.960945367813D-06 5.440612430573D+03
     2.400000000000D+05 3.725290298462D-09 1.672795230910D+00-1.862645149231D-09
     9.916708955533D-01 1.890937500000D+02-2.442870336841D+00-5.400582098779D-09
     8.143196533750D-11 5.170000000000D+02 2.116000000000D+03 0.000000000000D+00
     3.120000000000D+00 0.000000000000D+00 4.190951585770D-09 4.423782229424D-09
     2.406550000000D+05
E08 2020 07 28 18 40 00 6.143104110379D-03-5.385913937062D-12 0.000000000000D+00
     1.600000000000D+01-3.456250000000D+01 3.598364273216D-09-2.111524946587D+00
    -1.532956957817D-06 3.474213881418D-04 6.368383765221D-06 5.440621294022D+03
     2.400000000000D+05 5.215406417847D-08-2.508745238052D+00-9.313225746155D-08
     9.599542639825D-01 2.008437500000D+02-4.456356033345D-01-5.833457272625D-09
    -2.042942204294D-10 5.170000000000D+02 2.116000000000D+03 0.000000000000D+00
     3.120000000000D+00 0.000000000000D+00-5.820766091347D-09-6.752088665962D-09
     2.406640000000D+05
E30 2020 07 28 18 40 00 3.710752469487D-03-3.045386165468D-11 0.000000000000D+00
     1.600000000000D+01 1.264687500000D+02 2.724756420491D-09 8.603059795630D-01
     5.874782800674D-06 1.235634554178D-04 6.550922989845D-06 5.440611621857D+03
     2.400000000000D+05-5.587935447693D-09-4.032396741739D-01-1.490116119385D-08
     9.796542494574D-01 2.083437500000D+02 7.855212942863D-01-5.567017602914D-09
     7.964617160239D-11 5.170000000000D+02 2.116000000000D+03 0.000000000000D+00
     3.120000000000D+00 0.000000000000D+00-2.328306436539D-10-4.656612873077D-10
     2.406640000000D+05
E07 2020 07 28 18 40 00-4.151062457822D-04-5.030642569182D-12 0.000000000000D+00
     1.600000000000D+01-3.484375000000D+01 3.618007893280D-09-2.561639042480D+00
    -1.808628439903D-06 3.746489528567D-04 6.359070539474D-06 5.440620454788D+03
     2.400000000000D+05-8.381903171539D-08-2.502589373864D+00-1.490116119385D-08
     9.540147770819D-01 1.972812500000D+02-7.791260528132D-01-5.788455398116D-09
    -2.714398705805D-10 5.170000000000D+02 2.116000000000D+03 0.000000000000D+00
     3.120000000000D+00 0.000000000000D+00 2.793967723846D-09 3.026798367500D-09
     2.406640000000D+05
E13 2020 07 28 18 40 00 4.026374663226D-04 2.842170943040D-13 0.000000000000D+00
     1.600000000000D+01-8.971875000000D+01 2.692255085535D-09-2.492626133712D+00
    -4.198402166367D-06 5.039060488343D-05 8.739531040192D-06 5.440605714798D+03
     2.400000000000D+05 0.000000000000D+00 1.672823592503D+00 7.450580596924D-09
     9.917126823453D-01 1.667500000000D+02 1.266499232674D+00-5.423440193768D-09
     7.321733497268D-11 5.170000000000D+02 2.116000000000D+03 0.000000000000D+00
     3.120000000000D+00 0.000000000000D+00-1.862645149231D-09-2.328306436539D-09
     2.407150000000D+05
E30 2020 07 28 18 40 00 3.710753691848D-03-3.042543994525D-11 0.000000000000D+00
     1.600000000000D+01 1.264687500000D+02 2.724756420491D-09 8.603059795630D-01
     5.874782800674D-06 1.235634554178D-04 6.550922989845D-06 5.440611621857D+03
     2.400000000000D+05-5.587935447693D-09-4.032396741739D-01-1.490116119385D-08
     9.796542494574D-01 2.083437500000D+02 7.855212942863D-01-5.567017602914D-09
     7.964617160239D-11 2.580000000000D+02 2.116000000000D+03 0.000000000000D+00
     3.120000000000D+00 0.000000000000D+00-2.328306436539D-10 0.000000000000D+00
     2.407000000000D+05
E07 2020 07 28 18 40 00-4.151060711592D-04-5.030642569182D-12 0.000000000000D+00
     1.600000000000D+01-3.484375000000D+01 3.618007893280D-09-2.561639042480D+00
    -1.808628439903D-06 3.746489528567D-04 6.359070539474D-06 5.440620454788D+03
     2.400000000000D+05-8.381903171539D-08-2.502589373864D+00-1.490116119385D-08
     9.540147770819D-01 1.972812500000D+02-7.791260528132D-01-5.788455398116D-09
    -2.714398705805D-10 2.580000000000D+02 2.116000000000D+03 0.000000000000D+00
     3.120000000000D+00 0.000000000000D+00 2.793967723846D-09 0.000000000000D+00
     2.407000000000D+05
